TDRS 8                  
1 26388U 00034A   16136.26849107 -.00000240  00000-0  00000+0 0  9994
2 26388   6.8123  59.4181 0001148 176.4680 183.3911  1.00272487 58227
ECHOSTAR 6              
1 26402U 00038A   16138.40232218 -.00000154  00000-0  00000+0 0  9996
2 26402   3.4345  69.2148 0003482 347.7460 227.2046  1.00272456 57982
INTELSAT 9 (IS-9)       
1 26451U 00043A   16138.32584171 -.00000279  00000-0  00000+0 0  9993
2 26451   2.7616  73.3096 0003286 344.5115 251.8511  1.00272385 57915
BRASILSAT B4            
1 26469U 00046A   16135.58676809 -.00000228  00000-0  00000+0 0  9994
2 26469   0.8439  87.4527 0002425 328.6005 303.9669  1.00271748 57685
NILESAT 102             
1 26470U 00046B   16137.31379803 -.00000070  00000-0  00000+0 0  9998
2 26470   0.8619  84.9853 0003958 317.1844 298.2608  1.00273847 57699
ASTRA 2B                
1 26494U 00054A   16138.19474227  .00000145  00000-0  00000+0 0  9998
2 26494   1.4073  80.0433 0005091 343.5588 273.1861  1.00273850 57300
AMC-7 (GE-7)            
1 26495U 00054B   16137.72264721  .00000077  00000-0  00000+0 0  9997
2 26495   0.0577  81.7435 0000725 273.7333   4.5242  1.00272164 57324
NSS-11 (AAP-1)          
1 26554U 00059A   16136.76219407 -.00000359  00000-0  00000+0 0  9996
2 26554   0.0152 349.6843 0002774  82.2144 184.5958  1.00271448 57256
N-SAT-110 (JCSAT-110)   
1 26559U 00060A   16137.93078189 -.00000361  00000-0  00000+0 0  9996
2 26559   0.0169 326.9792 0000141  40.1163 313.1207  1.00271727 57190
AMC-6 (GE-6)            
1 26580U 00067A   16138.46686887 -.00000268  00000-0  00000+0 0  9992
2 26580   0.0492  82.9081 0002965 329.3093 279.4493  1.00271712 57053
INTELSAT 12 (IS-12)     
1 26590U 00068A   16138.19605356  .00000127  00000-0  00000+0 0  9999
2 26590   0.0211 284.6871 0002713 157.7326 268.4809  1.00272471 56864
INTELSAT 1R (IS-1R)     
1 26608U 00072A   16138.03759391 -.00000292  00000-0  00000+0 0  9990
2 26608   0.0200 219.9546 0001322  24.9497 313.8101  1.00273945 56723
ANIK F1                 
1 26624U 00076A   16135.65142682 -.00000091  00000-0  00000-0 0  9994
2 26624   0.0198 186.7945 0002016 248.9289 284.2968  1.00272982  6186
ASTRA 2D                
1 26638U 00081A   16137.38848022  .00000057  00000-0  00000+0 0  9998
2 26638   2.8884  71.8843 0002114 340.2035  19.5340  1.00270170 56453
AMC-8 (GE-8)            
1 26639U 00081B   16137.59864963  .00000093  00000-0  00000+0 0  9994
2 26639   0.0268  39.4733 0002243  17.0277 254.7505  1.00271726 56339
TURKSAT 2A              
1 26666U 01002A   16137.23239258  .00000133  00000-0  00000+0 0  9997
2 26666   0.3432  82.1853 0005301 320.9378 316.9191  1.00270443 56224
SKYNET 4F               
1 26695U 01005B   16138.05802205 -.00000255  00000-0  00000+0 0  9997
2 26695   8.4201  39.5652 0003136   3.0026 179.5192  1.00272634 55952
EUTELSAT 33C            
1 26719U 01011A   16137.94925449  .00000145  00000-0  00000+0 0  9991
2 26719   0.0676 347.6352 0004509  49.7164 212.5667  1.00275859 55641
INTELSAT 10 (IS-10)     
1 26766U 01019A   16137.88430053  .00000116  00000-0  00000+0 0  9994
2 26766   0.6969  86.7851 0002397 320.9154 193.1547  1.00272629 54995
INTELSAT 901 (IS-901)   
1 26824U 01024A   16137.65494640 -.00000152  00000-0  00000+0 0  9993
2 26824   0.0275  34.6683 0002899  20.6816  37.2229  1.00271978 54660
ASTRA 2C                
1 26853U 01025A   16138.12000248  .00000037  00000-0  00000+0 0  9997
2 26853   0.0635 301.3954 0003341 111.4537 285.8736  1.00271696 54648
ARTEMIS                 
1 26863U 01029A   16136.00624884  .00000096  00000-0  00000+0 0  9990
2 26863  12.2835  37.3133 0001977  24.9575 194.4874  1.00273559 55441
INTELSAT 902 (IS-902)   
1 26900U 01039A   16138.11969434  .00000023  00000-0  00000+0 0  9990
2 26900   0.0102  59.4570 0003201   7.9243 272.9615  1.00273015 53833
EUTELSAT 8 WEST A       
1 26927U 01042A   16137.53887690 -.00000112  00000-0  00000+0 0  9991
2 26927   0.0682 345.4904 0005706  62.1818   8.5209  1.00274303 53593
DIRECTV 4S              
1 26985U 01052A   16137.58845150 -.00000125  00000-0  00000+0 0  9990
2 26985   0.0116 283.0742 0002291 118.5205 303.7803  1.00273565 53058
INSAT-3C                
1 27298U 02002A   16138.06293339 -.00000087  00000-0  00000+0 0  9991
2 27298   0.0758 270.7811 0001897  88.8883 332.1606  1.00272129 52422
ECHOSTAR 7              
1 27378U 02006A   16138.49969422 -.00000009  00000-0  00000+0 0  9998
2 27378   0.0392  91.9349 0001167 309.0881 255.6795  1.00272809 52131
INTELSAT 904 (IS-904)   
1 27380U 02007A   16137.77032332  .00000037  00000-0  00000+0 0  9993
2 27380   0.0203 300.6359 0003316 111.4216 160.1604  1.00274146 52158
TDRS 9                  
1 27389U 02011A   16138.32416804 -.00000104  00000-0  00000+0 0  9995
2 27389   4.4399  84.5733 0017165 241.9164  13.7292  1.00271695 53516
JCSAT-2A                
1 27399U 02015A   16138.40563917 -.00000175  00000-0  00000+0 0  9995
2 27399   0.0107 326.3281 0001562  99.5092 109.7186  1.00269854 51691
ASTRA 3A                
1 27400U 02015B   16136.03916974  .00000055  00000-0  00000+0 0  9996
2 27400   3.0589  70.6919 0001402 320.1473  39.6064  1.00271858 51768
INTELSAT 903 (IS-903)   
1 27403U 02016A   16136.13512145 -.00000254  00000-0  00000+0 0  9995
2 27403   0.0424  93.9015 0003132 316.9372 196.5921  1.00271571 51693
NSS-7                   
1 27414U 02019A   16137.63877540 -.00000166  00000-0  00000+0 0  9991
2 27414   1.0778  85.1542 0002450 337.1809  22.4091  1.00271607 51615
DIRECTV 5 (TEMPO 1)     
1 27426U 02023A   16137.65381397 -.00000067  00000-0  00000+0 0  9991
2 27426   0.0095 313.8605 0003912 108.8205 297.3588  1.00270200 51372
INTELSAT 905 (IS-905)   
1 27438U 02027A   16137.15160855 -.00000197  00000-0  00000+0 0  9991
2 27438   0.0157 304.6817 0002631  95.0911 224.6175  1.00271102 51024
EXPRESS-A4              
1 27441U 02029A   16138.58093947 -.00000251  00000-0  00000+0 0  9993
2 27441   5.3857  59.1687 0002622 351.4339 179.6323  1.00274761 51043
GALAXY 3C (G-3C)        
1 27445U 02030A   16137.61196150 -.00000162  00000-0  00000+0 0  9993
2 27445   0.0176 303.0984 0001686  34.9475  21.9486  1.00271382 51020
EUTELSAT 5 WEST A       
1 27460U 02035A   16136.36535477 -.00000058  00000-0  00000+0 0  9999
2 27460   0.0447   4.6571 0005325  46.1600 309.2293  1.00272287 50801
N-STAR C                
1 27461U 02035B   16137.68173080 -.00000318  00000-0  00000+0 0  9993
2 27461   3.8928  67.1224 0004076 338.8193 210.3100  1.00272646 50736
EUTELSAT 33D            
1 27499U 02038A   16138.15591080 -.00000103  00000-0  00000+0 0  9996
2 27499   0.0532  43.8440 0003605  29.7703 286.4281  1.00571168 50294
ECHOSTAR 8              
1 27501U 02039A   16138.34496993 -.00000251  00000-0  00000+0 0  9993
2 27501   0.2661  90.0635 0003111 321.9006 230.8083  1.00272382 50343
EUTELSAT 12 WEST A      
1 27508U 02040A   16137.44839659 -.00000257  00000-0  00000+0 0  9998
2 27508   0.0794  29.4324 0003916  63.8507 266.7628  1.00271473 50306
METEOSAT-8 (MSG-1)      
1 27509U 02040B   16138.10868928  .00000010  00000-0  00000+0 0  9990
2 27509   4.1495  59.8588 0000588 222.6293 355.3827  1.00272838 50322
INTELSAT 906 (IS-906)   
1 27513U 02041A   16137.73088094  .00000003  00000-0  00000+0 0  9994
2 27513   0.0209 294.5742 0002313 131.2997 136.2749  1.00272314 50035
KODAMA (DRTS)           
1 27516U 02042B   16137.57618826 -.00000249  00000-0  00000+0 0  9995
2 27516   4.3228  64.4071 0002883 353.0350 115.4480  1.00272420 50112
KALPANA-1 (METSAT 1)    
1 27525U 02043A   16136.30625937 -.00000096  00000-0  00000+0 0  9997
2 27525   5.6781  57.9476 0012397 225.8938 133.8394  1.00272585 50092
HISPASAT 1D             
1 27528U 02044A   16138.32847990 -.00000225  00000-0  00000+0 0  9994
2 27528   0.0329  15.4880 0004853  10.2058 298.0145  1.00272269 50016
TDRS 10                 
1 27566U 02055A   16137.99765142  .00000073  00000-0  00000+0 0  9998
2 27566   4.3437  60.1982 0006949 236.5443 123.1702  1.00275714 49297
NSS-6                   
1 27603U 02057A   16138.05639204 -.00000280  00000-0  00000+0 0  9990
2 27603   0.0456  94.7886 0001415 287.5616 328.1348  1.00273847 49164
NIMIQ 2                 
1 27632U 02062A   16137.61941936 -.00000229  00000-0  00000+0 0  9990
2 27632   1.1756  84.1812 0004690 310.9999 210.6201  1.00272072 48943
INTELSAT 907 (IS-907)   
1 27683U 03007A   16136.42757983 -.00000218  00000-0  00000+0 0  9999
2 27683   0.0165 305.1785 0002980  99.7862 315.0587  1.00270721 48448
INSAT-3A                
1 27714U 03013A   16138.50306046 -.00000267  00000-0  00000+0 0  9996
2 27714   0.1177  95.4578 0007444 333.0543  81.7126  1.00273129 48021
GALAXY 12 (G-12)        
1 27715U 03013B   16137.41150289  .00000046  00000-0  00000+0 0  9996
2 27715   0.0200 267.0423 0001713 172.1504 174.4947  1.00273515 48060
ASIASAT 4               
1 27718U 03014A   16136.89969190 -.00000374  00000-0  00000-0 0  9996
2 27718   0.0047   6.0106 0000139  59.1248 254.9074  1.00269439 47975
HELLAS-SAT 2            
1 27811U 03020A   16137.94621072  .00000142  00000-0  00000+0 0  9999
2 27811   0.0210  63.0433 0004102 349.0445 202.5988  1.00272911 47401
AMC-9 (GE-12)           
1 27820U 03024A   16137.46702030 -.00000228  00000-0  00000+0 0  9990
2 27820   0.0154 348.8357 0002887  64.1274 266.7747  1.00272105 47398
THURAYA-2               
1 27825U 03026A   16136.97259050  .00000118  00000-0  00000+0 0  9998
2 27825   4.5685  27.4545 0004570   8.0687 232.7674  1.00274924 47401
OPTUS C1                
1 27831U 03028B   16138.33262545 -.00000157  00000-0  00000+0 0  9996
2 27831   0.0208 117.3509 0002763 313.0768  80.7755  1.00270285 47395
ECHOSTAR 12 (RAINBOW 1) 
1 27852U 03033A   16138.16607105 -.00000292  00000-0  00000+0 0  9991
2 27852   0.0252  33.3619 0001536  42.2807 158.1013  1.00273789 47050
